{
  "norad_id": 60460,
  "name": "YAOGAN-43 01C",
  "history": [
    {
      "epoch": "2026-03-25T17:02:50.135136",
      "apogee_km": 498.951421683847,
      "perigee_km": 492.0744723848384,
      "latitude_deg": -25.749970305605597,
      "longitude_deg": 6.189039039891213,
      "semi_major_axis_km": 6873.649947034342,
      "eccentricity": 0.00050024,
      "inclination_deg": 34.9998,
      "raan_deg": 327.5561,
      "arg_perigee_deg": 173.5072,
      "mean_anomaly_deg": 186.5708,
      "mean_motion_rev_day": 15.23426989
    }
  ]
}