{"fetched_at":"2026-03-29T02:12:04Z","count":15717,"tles":[{"name":"YAOGAN-43 01C","line1":"1 60460U 24148C   26084.71030249  .00001442  00000+0  60595-4 0  9990","line2":"2 60460  34.9998 327.5561 0005002 173.5072 186.5708 15.23426989 89406","category":"Other"}]}